[Satellite]
VERSION=1.1
NAME=NIUSat
NICKNAME=NIUSat
TLE1=1 42766U 17036B   20156.71192180  .00000878  00000-0  41650-4 0  9998
TLE2=2 42766  97.3010 208.8021 0017079  67.8630 292.4417 15.21703916163758
STATUS=0
